IRIDIUM 33 DEB          
1 36490U 97051WG  25331.86307493  .00012403  00000+0  18081-2 0  9997
2 36490  86.3661  17.1702 0005379 116.7035 243.4735 14.75727675862655
IRIDIUM 33 DEB          
1 36493U 97051WK  25332.86041681  .00006906  00000+0  12848-2 0  9991
2 36493  86.3589  17.8443 0011755  49.7703 310.4536 14.64962867743157
IRIDIUM 33 DEB          
1 37550U 97051XK  25332.90493997  .00007650  00000+0  13638-2 0  9997
2 37550  86.3784  30.0035 0004929 143.5014 216.6537 14.66913784861308
IRIDIUM 33 DEB          
1 37562U 97051XX  25333.00361647  .00005628  00000+0  12615-2 0  9995
2 37562  86.3751  49.5880 0026272 151.1631  26.2084 14.56266832861286
IRIDIUM 33 DEB          
1 37565U 97051YA  25332.41384089  .00002260  00000+0  56070-3 0  9990
2 37565  86.3509  15.8177 0014962 125.8428 234.4170 14.51426025656299
IRIDIUM 33 DEB          
1 38017U 97051YD  25332.29920041  .00022669  00000+0  57479-2 0  9991
2 38017  86.3449 172.4931 0092126 152.0812 208.5380 14.48170624611934
IRIDIUM 33 DEB          
1 38022U 97051YJ  25332.40621438  .00003406  00000+0  10377-2 0  9992
2 38022  86.2704  22.7184 0047269  95.8813 264.7777 14.41117224689875
